STARLINK-32752          
1 62567U 25006P   25202.36540842  .00012145  00000+0  45002-3 0  9998
2 62567  42.9985 159.0551 0001082 255.7982 104.2750 15.27588804 30561
STARLINK-32760          
1 62568U 25006Q   25202.37311893  .00017224  00000+0  63364-3 0  9996
2 62568  43.0003 159.1098 0000897 272.1663  87.9086 15.27596948 30561
STARLINK-32715          
1 62569U 25006R   25202.18338456  .00015638  00000+0  57635-3 0  9991
2 62569  43.0021 160.2702 0000970 263.8781  96.1960 15.27592957 30487
STARLINK-32764          
1 62570U 25006S   25202.19109535  .00013369  00000+0  49423-3 0  9993
2 62570  43.0004 160.3258 0000861 264.9157  95.1597 15.27594671 30429
STARLINK-32773          
1 62571U 25006T   25202.28203494  .00019202  00000+0  70558-3 0  9998
2 62571  43.0008 159.2884 0001536 274.7819  85.2857 15.27575950 30552
STARLINK-32750          
1 62572U 25006U   25202.26404741  .00014000  00000+0  51745-3 0  9993
2 62572  43.0014 159.1504 0001399 262.6862  97.3830 15.27571594 30554
STARLINK-32771          
1 62573U 25006V   25202.20894895  .00014613  00000+0  53924-3 0  9992
2 62573  43.0012 159.5985 0002359 279.6189  80.4396 15.27594897 30547
STARLINK-32766          
1 62574U 25006W   25202.16153988  .00015636  00000+0  57639-3 0  9992
2 62574  42.9970 160.0980 0000975 270.0848  89.9892 15.27586574 30582
STARLINK-11547 [DTC]    
1 62587U 25008A   25202.38523123  .00163529  00000+0  12529-2 0  9997
2 62587  43.0012  80.6109 0000679 333.7458  26.3375 15.70841980 30900
STARLINK-11185 [DTC]    
1 62588U 25008B   25202.35336169  .00167382  00000+0  12797-2 0  9995
2 62588  43.0019  80.3514 0001119 277.2401  82.8340 15.70880044 30830
STARLINK-11513 [DTC]    
1 62589U 25008C   25202.37460150  .00236570  00000+0  17909-2 0  9992
2 62589  43.0002  80.5233 0000773 305.9641  54.1154 15.70896375 30898
STARLINK-11397 [DTC]    
1 62590U 25008D   25202.27385062  .00177416  00000+0  13545-2 0  9996
2 62590  42.9996  80.6065 0000980 282.8757  77.2001 15.70881076 30827
STARLINK-11420 [DTC]    
1 62591U 25008E   25202.37990615  .00190075  00000+0  14478-2 0  9996
2 62591  42.9996  80.5647 0001675 266.0954  93.9722 15.70895282 30906
STARLINK-11415 [DTC]    
1 62592U 25008F   25202.07791783  .00194279  00000+0  14819-2 0  9998
2 62592  43.0010  82.6097 0001744 271.5237  88.5431 15.70848516 30792
STARLINK-11413 [DTC]    
1 62593U 25008G   25202.07260815  .00182364  00000+0  13933-2 0  9994
2 62593  43.0004  82.5668 0001755 275.2044  84.8623 15.70847266 30757
STARLINK-11416 [DTC]    
1 62594U 25008H   25202.03012608  .00158768  00000+0  12149-2 0  9995
2 62594  43.0039  82.1884 0002772 268.0069  92.0482 15.70885482 30621
STARLINK-11535 [DTC]    
1 62595U 25008J   25202.02482276  .00199500  00000+0  15181-2 0  9995
2 62595  43.0034  82.1809 0002575 273.4431  86.6142 15.70887725 30701
STARLINK-11532 [DTC]    
1 62596U 25008K   25202.34206460  .00389646  00000+0  18498-2 0  9996
2 62596  42.9891  75.7447 0001959 294.3255  65.7412 15.81076163 30726
STARLINK-11521 [DTC]    
1 62597U 25008L   25202.35867247  .00177853  00000+0  13577-2 0  9992
2 62597  42.9999  80.3921 0000892 297.5843  62.4934 15.70882011 30906
STARLINK-11258 [DTC]    
1 62598U 25008M   25202.36397962  .00211838  00000+0  16091-2 0  9992
2 62598  43.0010  80.4349 0001248 285.0032  75.0698 15.70892948 30903
STARLINK-11529 [DTC]    
1 62599U 25008N   25202.36928991  .00201773  00000+0  15306-2 0  9990
2 62599  43.0002  80.4756 0001303 288.4637  71.6089 15.70956356 30907
STARLINK-32747          
1 62600U 25008P   25202.24160124  .00011146  00000+0  41389-3 0  9990
2 62600  43.0020 145.3456 0001403 270.5530  89.5161 15.27585234 30165
STARLINK-32767          
1 62601U 25008Q   25202.20562282  .00012212  00000+0  45240-3 0  9993
2 62601  42.9962 145.0693 0000821 257.7572 102.3187 15.27591749 30222
STARLINK-32769          
1 62602U 25008R   25202.20947265  .00015160  00000+0  55897-3 0  9996
2 62602  42.9975 145.0970 0001250 263.4808  96.5901 15.27597914 30215
STARLINK-32778          
1 62603U 25008S   25201.27238701  .00019314  00000+0  70912-3 0  9991
2 62603  42.9995 150.9720 0001287 274.9444  85.1261 15.27600058 30014
STARLINK-32710          
1 62604U 25008T   25202.19148581  .00006925  00000+0  26092-3 0  9994
2 62604  42.9985 144.9560 0001330 274.2751  85.7948 15.27583589 30132
STARLINK-32742          
1 62605U 25008U   25202.19533971  .00022508  00000+0  82459-3 0  9990
2 62605  42.9950 144.9851 0001435 274.4173  85.6515 15.27593750 30202
STARLINK-32783          
1 62606U 25008V   25202.21333066  .00028215  00000+0  10305-2 0  9998
2 62606  42.9994 145.1299 0001285 263.6323  96.4383 15.27593675 30164
STARLINK-32784          
1 62607U 25008W   25202.20176456  .00019109  00000+0  70186-3 0  9992
2 62607  42.9984 145.0370 0001202 261.9875  98.0840 15.27591797 30221
STARLINK-32806          
1 62735U 25014A   25202.47239815  .00015605  00000+0  57555-3 0  9991
2 62735  43.0064  20.3658 0001039 281.3480  78.7255 15.27572334 27894
