OBJECT_NAME,OBJECT_ID,EPOCH,MEAN_MOTION,ECCENTRICITY,INCLINATION,RA_OF_ASC_NODE,ARG_OF_PERICENTER,MEAN_ANOMALY,EPHEMERIS_TYPE,CLASSIFICATION_TYPE,NORAD_CAT_ID,ELEMENT_SET_NO,REV_AT_EPOCH,BSTAR,MEAN_MOTION_DOT,MEAN_MOTION_DDOT
STARLINK-32752,2025-006P,2025-07-21T08:46:11.287488,15.27588804,.0001082,42.9985,159.0551,255.7982,104.2750,0,U,62567,999,3056,.45002E-3,.12145E-3,0
STARLINK-32760,2025-006Q,2025-07-21T08:57:17.475552,15.27596948,.0000897,43.0003,159.1098,272.1663,87.9086,0,U,62568,999,3056,.63364E-3,.17224E-3,0
STARLINK-32715,2025-006R,2025-07-21T04:24:04.425984,15.27592957,.000097,43.0021,160.2702,263.8781,96.1960,0,U,62569,999,3048,.57635E-3,.15638E-3,0
STARLINK-32764,2025-006S,2025-07-21T04:35:10.638240,15.27594671,.0000861,43.0004,160.3258,264.9157,95.1597,0,U,62570,999,3042,.49423E-3,.13369E-3,0
STARLINK-32773,2025-006T,2025-07-21T06:46:07.818816,15.27575950,.0001536,43.0008,159.2884,274.7819,85.2857,0,U,62571,999,3055,.70558E-3,.19202E-3,0
STARLINK-32750,2025-006U,2025-07-21T06:20:13.696224,15.27571594,.0001399,43.0014,159.1504,262.6862,97.3830,0,U,62572,999,3055,.51745E-3,.14E-3,0
STARLINK-32771,2025-006V,2025-07-21T05:00:53.189280,15.27594897,.0002359,43.0012,159.5985,279.6189,80.4396,0,U,62573,999,3054,.53924E-3,.14613E-3,0
STARLINK-32766,2025-006W,2025-07-21T03:52:37.045632,15.27586574,.0000975,42.9970,160.0980,270.0848,89.9892,0,U,62574,999,3058,.57639E-3,.15636E-3,0
STARLINK-11547 [DTC],2025-008A,2025-07-21T09:14:43.978272,15.70841980,.0000679,43.0012,80.6109,333.7458,26.3375,0,U,62587,999,3090,.12529E-2,.163529E-2,0
STARLINK-11185 [DTC],2025-008B,2025-07-21T08:28:50.450016,15.70880044,.0001119,43.0019,80.3514,277.2401,82.8340,0,U,62588,999,3083,.12797E-2,.167382E-2,0
STARLINK-11513 [DTC],2025-008C,2025-07-21T08:59:25.569600,15.70896375,.0000773,43.0002,80.5233,305.9641,54.1154,0,U,62589,999,3089,.17909E-2,.23657E-2,0
STARLINK-11397 [DTC],2025-008D,2025-07-21T06:34:20.693568,15.70881076,.000098,42.9996,80.6065,282.8757,77.2001,0,U,62590,999,3082,.13545E-2,.177416E-2,0
STARLINK-11420 [DTC],2025-008E,2025-07-21T09:07:03.891360,15.70895282,.0001675,42.9996,80.5647,266.0954,93.9722,0,U,62591,999,3090,.14478E-2,.190075E-2,0
STARLINK-11415 [DTC],2025-008F,2025-07-21T01:52:12.100512,15.70848516,.0001744,43.0010,82.6097,271.5237,88.5431,0,U,62592,999,3079,.14819E-2,.194279E-2,0
STARLINK-11413 [DTC],2025-008G,2025-07-21T01:44:33.344160,15.70847266,.0001755,43.0004,82.5668,275.2044,84.8623,0,U,62593,999,3075,.13933E-2,.182364E-2,0
STARLINK-11416 [DTC],2025-008H,2025-07-21T00:43:22.893312,15.70885482,.0002772,43.0039,82.1884,268.0069,92.0482,0,U,62594,999,3062,.12149E-2,.158768E-2,0
STARLINK-11535 [DTC],2025-008J,2025-07-21T00:35:44.686464,15.70887725,.0002575,43.0034,82.1809,273.4431,86.6142,0,U,62595,999,3070,.15181E-2,.1995E-2,0
STARLINK-11532 [DTC],2025-008K,2025-07-21T08:12:34.381440,15.81076163,.0001959,42.9891,75.7447,294.3255,65.7412,0,U,62596,999,3072,.18498E-2,.389646E-2,0
STARLINK-11521 [DTC],2025-008L,2025-07-21T08:36:29.301408,15.70882011,.0000892,42.9999,80.3921,297.5843,62.4934,0,U,62597,999,3090,.13577E-2,.177853E-2,0
STARLINK-11258 [DTC],2025-008M,2025-07-21T08:44:07.839168,15.70892948,.0001248,43.0010,80.4349,285.0032,75.0698,0,U,62598,999,3090,.16091E-2,.211838E-2,0
STARLINK-11529 [DTC],2025-008N,2025-07-21T08:51:46.648224,15.70956356,.0001303,43.0002,80.4756,288.4637,71.6089,0,U,62599,999,3090,.15306E-2,.201773E-2,0
STARLINK-32747,2025-008P,2025-07-21T05:47:54.347136,15.27585234,.0001403,43.0020,145.3456,270.5530,89.5161,0,U,62600,999,3016,.41389E-3,.11146E-3,0
STARLINK-32767,2025-008Q,2025-07-21T04:56:05.811648,15.27591749,.0000821,42.9962,145.0693,257.7572,102.3187,0,U,62601,999,3022,.4524E-3,.12212E-3,0
STARLINK-32769,2025-008R,2025-07-21T05:01:38.436960,15.27597914,.000125,42.9975,145.0970,263.4808,96.5901,0,U,62602,999,3021,.55897E-3,.1516E-3,0
STARLINK-32778,2025-008S,2025-07-20T06:32:14.237664,15.27600058,.0001287,42.9995,150.9720,274.9444,85.1261,0,U,62603,999,3001,.70912E-3,.19314E-3,0
STARLINK-32710,2025-008T,2025-07-21T04:35:44.373984,15.27583589,.000133,42.9985,144.9560,274.2751,85.7948,0,U,62604,999,3013,.26092E-3,.6925E-4,0
STARLINK-32742,2025-008U,2025-07-21T04:41:17.350944,15.27593750,.0001435,42.9950,144.9851,274.4173,85.6515,0,U,62605,999,3020,.82459E-3,.22508E-3,0
STARLINK-32783,2025-008V,2025-07-21T05:07:11.769024,15.27593675,.0001285,42.9994,145.1299,263.6323,96.4383,0,U,62606,999,3016,.10305E-2,.28215E-3,0
STARLINK-32784,2025-008W,2025-07-21T04:50:32.457984,15.27591797,.0001202,42.9984,145.0370,261.9875,98.0840,0,U,62607,999,3022,.70186E-3,.19109E-3,0
STARLINK-32806,2025-014A,2025-07-21T11:20:15.200160,15.27572334,.0001039,43.0064,20.3658,281.3480,78.7255,0,U,62735,999,2789,.57555E-3,.15605E-3,0
